[{"OBJECT_NAME":"HEAD-3A","OBJECT_ID":"2023-121A","EPOCH":"2026-03-09T23:13:19.514208","MEAN_MOTION":14.60504198,"ECCENTRICITY":0.00053162,"INCLINATION":45.0013,"RA_OF_ASC_NODE":79.5453,"ARG_OF_PERICENTER":132.961,"MEAN_ANOMALY":227.1693,"EPHEMERIS_TYPE":0,"CLASSIFICATION_TYPE":"U","NORAD_CAT_ID":57626,"ELEMENT_SET_NO":999,"REV_AT_EPOCH":13707,"BSTAR":0.00022333117,"MEAN_MOTION_DOT":9.35e-6,"MEAN_MOTION_DDOT":0},{"OBJECT_NAME":"COSMOS 2251 DEB","OBJECT_ID":"1993-036BLL","EPOCH":"2026-03-07T02:46:36.189696","MEAN_MOTION":14.4372398,"ECCENTRICITY":0.00928485,"INCLINATION":73.9769,"RA_OF_ASC_NODE":345.8905,"ARG_OF_PERICENTER":174.3404,"MEAN_ANOMALY":185.8826,"EPHEMERIS_TYPE":0,"CLASSIFICATION_TYPE":"U","NORAD_CAT_ID":37483,"ELEMENT_SET_NO":999,"REV_AT_EPOCH":66497,"BSTAR":0.00020947003,"MEAN_MOTION_DOT":7.21e-6,"MEAN_MOTION_DDOT":0}]
